SL-3 R/B                
1 13403U 82079B   26073.58848280  .00009617  00000+0  38219-3 0  9996
2 13403  81.1481 187.2933 0025254 148.4365 211.8390 15.24881023378442
SL-14 R/B               
1 13553U 82092B   26073.64126722  .00000518  00000+0  55415-4 0  9993
2 13553  82.5685 136.7682 0018821 285.9489 226.5104 14.86671785329660
SL-3 R/B                
1 13819U 83010B   26073.22561871  .00019187  00000+0  38300-3 0  9996
2 13819  81.1059 356.6865 0017665  36.1797 324.0639 15.46531792358641
SL-3 R/B                
1 14208U 83075B   26073.56519786  .00014816  00000+0  38864-3 0  9994
2 14208  97.6141  78.3274 0020581 207.3916 152.6245 15.38546539330909
COSMOS 1536             
1 14699U 84013A   26073.57911615  .00008308  00000+0  34210-3 0  9999
2 14699  82.5424 102.9892 0012435 264.0292  95.9528 15.23896288273368
SL-14 R/B               
1 14820U 84027B   26073.47409051  .00000605  00000+0  66354-4 0  9992
2 14820  82.5392 240.5243 0016978 321.4156  38.5846 14.85982160248348
SL-8 R/B                
1 15483U 85006B   26073.59849782  .00000412  00000+0  14524-3 0  9995
2 15483  74.0432 252.1146 0018236 168.6544 254.4748 14.37787266154733
SL-12 R/B(2)            
1 15772U 85042D   26073.48804615  .00000164  00000+0  95348-4 0  9998
2 15772  71.1063  77.5901 0033062 120.2340 353.9115 14.21983843115071
SL-14 R/B               
1 15945U 85069B   26073.59205651  .00000652  00000+0  70906-4 0  9991
2 15945  82.5293  20.3239 0018919 171.3707 188.7839 14.86439745173565
SL-16 R/B               
1 16182U 85097B   26073.59431059 -.00000003  00000+0  22353-4 0  9993
2 16182  71.0018 130.2292 0009770 253.6938 258.5487 14.16598173 87925
SL-14 R/B               
1 16496U 86006B   26073.56785167  .00000865  00000+0  89508-4 0  9991
2 16496  82.5236 255.1447 0075092 256.2867 102.9982 14.86823027149939
COSMOS 1743             
1 16719U 86034A   26073.52102420  .00048940  00000+0  62794-3 0  9994
2 16719  82.5290  68.7583 0001693 244.7461 115.3620 15.58934649181008
